#dP2024  7 22  6  0  0.00000000      96 __u+U IGS20 EXT  IAC
## 2324 108000.00000000   900.00000000 60513 0.2500000000000
+   54   G02G03G04G05G06G07G08G09G10G11G12G13G14G15G16G17G18
+        G19G20G21G22G23G24G25G26G27G28G29G30G31G32R01R02R03
+        R04R05R07R08R09R11R12R13R14R15R16R17R18R19R20R21R22
+        R24R25R26  0  0  0  0  0  0  0  0  0  0  0  0  0  0
+          0  0  0  0  0  0  0  0  0  0  0  0  0  0  0  0  0
++         9  9  7  8  9  8  7  8  8  9  8  7  8  8  9  8  7
++         7  8  9  8  9  7 10  9  9  9  8  8  8  9  9  7  7
++         8  8 10  9  5  9  9  8  8  8  8  7  7  9 10  8  7
++         8  8  8  0  0  0  0  0  0  0  0  0  0  0  0  0  0
++         0  0  0  0  0  0  0  0  0  0  0  0  0  0  0  0  0
%c M  cc GPS ccc cccc cccc cccc cccc ccccc ccccc ccccc ccccc
%c cc cc ccc ccc cccc cccc cccc cccc ccccc ccccc ccccc ccccc
%f  0.0000000  0.000000000  0.00000000000  0.000000000000000
%f  0.0000000  0.000000000  0.00000000000  0.000000000000000
%i    0    0    0    0      0      0      0      0         0
%i    0    0    0    0      0      0      0      0         0
/* IAC                                ULTRA-RAPID PREDICTION
/* S/V CLOCKS ARE ALIGNED TO GNSS TIME                      
/* G:C1WC2W R:C1PC2P E:C1XC5X C:C2IC6I J:C1CC2S             
/* PCV:IGS20_2317 OL/AL:FES2004  NONE     YN ORB:CoN CLK:CoN
*  2024 07 22 18  0  0.00000000
PG02 -10452.009066  19932.243418 -13379.817971   -393.981026
PG03   2673.189085  16730.259181 -20650.689578    469.198472
PG04  -1142.329291  26341.180742  -2495.788185    409.065158
PG05  13978.824029  -9095.841954  20505.385587   -180.634658
PG06  21722.249490  -1997.353448 -15166.825470    145.761144
PG07   8177.171698  13396.816390  21942.557030    -64.930124
PG08  -7312.749705  21653.304024  13049.358047    285.292421
PG09   7912.484452  23839.008173   8461.589503    283.568514
PG10 -24431.466130 -10545.708183  -2428.535747    -72.958400
PG11  23558.669407 -11931.319184  -2496.708898   -709.371308
PG12   1475.426274 -16314.462695 -21194.631728   -524.366166
PG13  13226.551165 -14551.750607  17522.275616    666.217080
PG14  23185.439103  13170.766549    978.719717    454.893549
PG15   4396.072455 -22741.703950  12323.752599    184.027229
PG16 -17920.220507   4459.582774  18916.447525   -229.458904
PG17  12963.973674  12707.027392 -18912.808134    672.139647
PG18  -8164.581955 -12493.098826  21984.014701   -639.188781
PG19  14923.024240   3502.400568 -21883.903579    514.111633
PG20  21860.137221  -4182.310305  14442.019482    372.486237
PG21 -14526.574712  19508.715352  -8881.265709    107.293922
PG22  23701.108489   9081.791683  -6875.305521    -42.656986
PG23 -19302.326059 -15916.143128   9250.875846    279.856505
PG24  11069.421370 -20723.710773 -12409.039846   -484.132097
PG25 -10549.198051 -18273.289959 -16624.470698    498.748856
PG26 -24957.055049  -2844.086350   9028.601532    115.143251
PG27 -12908.448794  11799.529348  19571.300698    -31.698856
PG28 -20658.353798    278.481311 -16701.882549   -342.043541
PG29  -3423.623891 -25635.964220   5689.320290   -588.224140
PG30  17735.243786   5359.993888  19272.823904   -353.312847
PG31 -24181.998785   8934.009855  -7408.376896   -226.560525
PG32 -14365.859647 -10466.845083 -19585.992299   -610.731421
PR01 -14452.721050  -9035.941523 -18974.502721     92.176736
PR02  -8131.016966   7830.070757 -22826.203343    -23.830029
PR03   2600.729984  21252.488529 -13774.937717    104.210973
PR04  11337.338138  22706.796494   2512.692233    246.366514
PR05  14119.013532  12060.718911  17485.943935    134.904744
PR07  -2983.770071 -21612.362906  13296.543954     87.208421
PR08 -11594.320265 -22584.075283  -2615.826080     -6.110079
PR09  21020.161159  -5391.692258 -13453.228516    199.149327
PR11 -12132.210211 -10473.651525 -19821.468331     17.365903
PR12 -24912.322369  -4031.814107  -3717.722433     42.751041
PR13 -22560.411635   3696.253502  11308.622501    -49.676286
PR14  -5171.446091  10623.364791  22622.273771     26.717947
PR15  13679.793051  10381.547011  18890.707278     77.609212
PR16  24889.283003   4034.648791   4010.664705     27.582238
PR17 -10459.962250  21499.617427  -8954.314162    106.916635
PR18   1079.815847  14468.621661 -20957.008175    153.250555
PR19  11229.617873   2211.179283 -22798.713916   -284.819531
PR20  17802.281480 -15584.507690  -9570.520898   -116.537036
PR21  10912.808244 -21391.441566   8546.317950   -119.706005
PR22  -1927.767141 -13935.446143  21302.776589     83.836980
PR24 -17194.288657  16576.321519   9005.849144    -64.788171
PR25  10952.101391 -21094.908308   9226.847511    -97.693514
PR26 -11200.651186 -22869.343964  -1252.583932      5.675135
*  2024 07 22 18 15  0.00000000
PG02 -11726.298137  20704.135358 -10997.092347   -393.974358
PG03    503.971570  15770.167448 -21550.283409    469.212924
PG04  -1414.779789  25904.822923  -5323.048445    409.072075
PG05  16086.857334  -8142.082495  19345.212538   -180.635850
PG06  20258.052136   -860.620690 -17152.356069    145.740285
PG07   6198.126750  14740.695238  21681.129836    -64.923706
PG08  -7756.252208  20044.974521  15207.644141    285.306636
PG09   7758.162817  24687.928056   5763.448195    283.582190
PG10 -24485.158344 -10749.483148    451.698510    -72.967460
PG11  23308.266025 -11485.876332  -5320.227560   -709.377165
PG12   3599.269365 -15199.301810 -21765.110645   -524.368909
PG13  13253.002190 -12407.673335  19084.825805    666.219202
PG14  22822.364839  13305.530438   3772.737490    454.901529
PG15   5055.956065 -21233.655230  14498.852936    184.031105
PG16 -19701.922485   3295.734324  17386.614002   -229.449373
PG17  12882.795546  14866.319490 -17349.797474    672.132299
PG18  -6083.408112 -13878.145242  21808.456650   -639.192210
PG19  14866.572355   5937.711062 -21424.480072    514.116439
PG20  23275.479568  -3580.674781  12195.217770    372.485875
PG21 -15447.984889  19871.744324  -6147.359096    107.291854
PG22  24152.915342   9661.283075  -4096.875573    -42.661008
PG23 -18143.814956 -15594.200971  11783.044427    279.864486
PG24  12207.579465 -21308.127303 -10002.955007   -484.133342
PG25  -8719.849839 -17629.460128 -18305.321431    498.749144
PG26 -25699.727901  -3429.457683   6445.735769    115.136879
PG27 -13254.560667   9454.421786  20609.192250    -31.699578
PG28 -19146.928098  -1048.760876 -18388.058698   -342.057635
PG29  -3198.412312 -26135.180929   2861.631391   -588.222399
PG30  15969.169819   6739.931410  20338.329071   -353.306927
PG31 -23508.645175   8216.585655  -9992.717769   -226.560323
PG32 -14468.509408 -12663.354325 -18196.504519   -610.729442
PR01 -15576.291044 -10950.495379 -16970.022626     92.177725
PR02  -9358.490605   5262.402303 -23095.715226    -23.830221
PR03   1880.937059  19531.505703 -16220.022626    104.211512
PR04  11546.200341  22725.524913   -713.516591    246.367956
PR05  15106.829092  13824.689532  15203.024248    134.905226
PR07  -2309.360817 -19952.139490  15793.637916     87.209131
PR08 -11801.924103 -22628.294117    598.936936     -6.110131
PR09  22515.762303  -5428.583769 -10760.254786    199.151218
PR11  -9599.944560 -10281.625769 -21258.627715     17.364751
PR12 -24265.673545  -3866.800181  -6835.527747     42.751396
PR13 -23782.307569   3756.877888   8417.253413    -49.676730
PR14  -7909.131163  10517.365438  21865.140711     26.717921
PR15  11261.863979  10175.832335  20528.995060     77.608827
PR16  24213.563255   3848.530995   7126.950003     27.582331
PR17 -10819.378259  22362.718778  -5895.993737    106.919614
PR18   -255.948615  16577.745738 -19357.692751    153.252181
PR19   9517.662799   4482.967428 -23240.874182   -284.820768
PR20  16835.123916 -14609.194824 -12428.160350   -116.537377
PR21  11245.602322 -22213.898009   5457.986545   -119.708917
PR22   -490.936374 -16024.869643  19865.551277     83.830841
PR24 -16361.753932  15586.878606  11869.945867    -64.789620
PR25  11402.767693 -21944.952797   6199.144518    -97.695124
PR26 -11328.390105 -22758.210895   1969.118716      5.676858
EOF
